{
  "type": "FeatureCollection",
  "features": [
    {
      "type": "Feature",
      "properties": {
        "norad_id": 34079,
        "name": "IRIDIUM 33 DEB",
        "group": "iridium-33-debris",
        "lat": 5.409985810025247,
        "lon": -171.49156444770344,
        "alt_km": 624.5112164347183,
        "timestamp": "2025-12-12T07:43:20.900145+00:00",
        "meta_object_name": "IRIDIUM 33 DEB",
        "meta_object_id": "1997-051CN",
        "meta_epoch": "2025-12-12T00:45:00.547776",
        "meta_mean_motion": 14.83498735,
        "meta_eccentricity": 0.00057095,
        "meta_inclination": 86.378,
        "meta_ra_of_asc_node": 8.9842,
        "meta_arg_of_pericenter": 10.5537,
        "meta_mean_anomaly": 53.393,
        "meta_ephemeris_type": 0,
        "meta_classification_type": "U",
        "meta_norad_cat_id": 34079,
        "meta_element_set_no": 999,
        "meta_rev_at_epoch": 88967,
        "meta_bstar": 0.0025106386,
        "meta_mean_motion_dot": 0.00020712,
        "meta_mean_motion_ddot": 0,
        "tle_line1": "1 34079U 97051CN  25346.03125634  .00020712  00000+0  25106-2 0  9996",
        "tle_line2": "2 34079  86.3780   8.9842 0005709  10.5537  53.3930 14.83498735889673"
      },
      "geometry": {
        "type": "Point",
        "coordinates": [
          -171.49156444770344,
          5.409985810025247
        ]
      }
    },
    {
      "type": "Feature",
      "properties": {
        "norad_id": 34088,
        "name": "IRIDIUM 33 DEB",
        "group": "iridium-33-debris",
        "lat": -73.63929191493618,
        "lon": -136.64689910673755,
        "alt_km": 600.1887461263341,
        "timestamp": "2025-12-12T07:43:20.900155+00:00",
        "meta_object_name": "IRIDIUM 33 DEB",
        "meta_object_id": "1997-051CX",
        "meta_epoch": "2025-12-11T21:28:33.153888",
        "meta_mean_motion": 14.91323506,
        "meta_eccentricity": 0.00056064,
        "meta_inclination": 86.3847,
        "meta_ra_of_asc_node": 31.1121,
        "meta_arg_of_pericenter": 179.2406,
        "meta_mean_anomaly": 304.0465,
        "meta_ephemeris_type": 0,
        "meta_classification_type": "U",
        "meta_norad_cat_id": 34088,
        "meta_element_set_no": 999,
        "meta_rev_at_epoch": 88729,
        "meta_bstar": 0.003721895,
        "meta_mean_motion_dot": 0.00037269,
        "meta_mean_motion_ddot": 0,
        "tle_line1": "1 34088U 97051CX  25345.89482817  .00037269  00000+0  37219-2 0  9991",
        "tle_line2": "2 34088  86.3847  31.1121 0005606 179.2406 304.0465 14.91323506887296"
      },
      "geometry": {
        "type": "Point",
        "coordinates": [
          -136.64689910673755,
          -73.63929191493618
        ]
      }
    },
    {
      "type": "Feature",
      "properties": {
        "norad_id": 34091,
        "name": "IRIDIUM 33 DEB",
        "group": "iridium-33-debris",
        "lat": 84.65088176142477,
        "lon": -156.08794809830854,
        "alt_km": 638.0747872354932,
        "timestamp": "2025-12-12T07:43:20.900166+00:00",
        "meta_object_name": "IRIDIUM 33 DEB",
        "meta_object_id": "1997-051DA",
        "meta_epoch": "2025-12-11T16:42:44.021376",
        "meta_mean_motion": 14.81703346,
        "meta_eccentricity": 0.00332733,
        "meta_inclination": 86.341,
        "meta_ra_of_asc_node": 67.3114,
        "meta_arg_of_pericenter": 296.9804,
        "meta_mean_anomaly": 62.8021,
        "meta_ephemeris_type": 0,
        "meta_classification_type": "U",
        "meta_norad_cat_id": 34091,
        "meta_element_set_no": 999,
        "meta_rev_at_epoch": 87851,
        "meta_bstar": 0.0060351741,
        "meta_mean_motion_dot": 0.00048284,
        "meta_mean_motion_ddot": 0,
        "tle_line1": "1 34091U 97051DA  25345.69634284  .00048284  00000+0  60352-2 0  9993",
        "tle_line2": "2 34091  86.3410  67.3114 0033273 296.9804  62.8021 14.81703346878514"
      },
      "geometry": {
        "type": "Point",
        "coordinates": [
          -156.08794809830854,
          84.65088176142477
        ]
      }
    },
    {
      "type": "Feature",
      "properties": {
        "norad_id": 34097,
        "name": "IRIDIUM 33 DEB",
        "group": "iridium-33-debris",
        "lat": 53.27216367972519,
        "lon": 6.701641959917967,
        "alt_km": 732.5569355141815,
        "timestamp": "2025-12-12T07:43:20.900177+00:00",
        "meta_object_name": "IRIDIUM 33 DEB",
        "meta_object_id": "1997-051DG",
        "meta_epoch": "2025-12-12T00:46:57.892800",
        "meta_mean_motion": 14.3476745,
        "meta_eccentricity": 0.00826721,
        "meta_inclination": 86.2008,
        "meta_ra_of_asc_node": 1.7198,
        "meta_arg_of_pericenter": 4.5012,
        "meta_mean_anomaly": 355.6908,
        "meta_ephemeris_type": 0,
        "meta_classification_type": "U",
        "meta_norad_cat_id": 34097,
        "meta_element_set_no": 999,
        "meta_rev_at_epoch": 87109,
        "meta_bstar": 0.002167954,
        "meta_mean_motion_dot": 6.405e-05,
        "meta_mean_motion_ddot": 0,
        "tle_line1": "1 34097U 97051DG  25346.03261450  .00006405  00000+0  21680-2 0  9999",
        "tle_line2": "2 34097  86.2008   1.7198 0082672   4.5012 355.6908 14.34767450871094"
      },
      "geometry": {
        "type": "Point",
        "coordinates": [
          6.701641959917967,
          53.27216367972519
        ]
      }
    },
    {
      "type": "Feature",
      "properties": {
        "norad_id": 34145,
        "name": "IRIDIUM 33 DEB",
        "group": "iridium-33-debris",
        "lat": -49.53525840238367,
        "lon": -31.74146239189149,
        "alt_km": 790.2747904253838,
        "timestamp": "2025-12-12T07:43:20.900201+00:00",
        "meta_object_name": "IRIDIUM 33 DEB",
        "meta_object_id": "1997-051DY",
        "meta_epoch": "2025-12-11T23:37:41.599200",
        "meta_mean_motion": 14.42279969,
        "meta_eccentricity": 0.00556944,
        "meta_inclination": 86.2122,
        "meta_ra_of_asc_node": 332.863,
        "meta_arg_of_pericenter": 96.2305,
        "meta_mean_anomaly": 264.5244,
        "meta_ephemeris_type": 0,
        "meta_classification_type": "U",
        "meta_norad_cat_id": 34145,
        "meta_element_set_no": 999,
        "meta_rev_at_epoch": 87627,
        "meta_bstar": 0.0017354333,
        "meta_mean_motion_dot": 5.852e-05,
        "meta_mean_motion_ddot": 0,
        "tle_line1": "1 34145U 97051DY  25345.98450925  .00005852  00000+0  17354-2 0  9991",
        "tle_line2": "2 34145  86.2122 332.8630 0055694  96.2305 264.5244 14.42279969876279"
      },
      "geometry": {
        "type": "Point",
        "coordinates": [
          -31.74146239189149,
          -49.53525840238367
        ]
      }
    },
    {
      "type": "Feature",
      "properties": {
        "norad_id": 34146,
        "name": "IRIDIUM 33 DEB",
        "group": "iridium-33-debris",
        "lat": -61.2900476103203,
        "lon": -16.829412827328127,
        "alt_km": 731.4204307051868,
        "timestamp": "2025-12-12T07:43:20.900214+00:00",
        "meta_object_name": "IRIDIUM 33 DEB",
        "meta_object_id": "1997-051DZ",
        "meta_epoch": "2025-12-11T23:59:18.754368",
        "meta_mean_motion": 14.49040748,
        "meta_eccentricity": 0.00254271,
        "meta_inclination": 86.284,
        "meta_ra_of_asc_node": 350.1275,
        "meta_arg_of_pericenter": 224.2485,
        "meta_mean_anomaly": 194.0777,
        "meta_ephemeris_type": 0,
        "meta_classification_type": "U",
        "meta_norad_cat_id": 34146,
        "meta_element_set_no": 999,
        "meta_rev_at_epoch": 88096,
        "meta_bstar": 0.001480679,
        "meta_mean_motion_dot": 5.661e-05,
        "meta_mean_motion_ddot": 0,
        "tle_line1": "1 34146U 97051DZ  25345.99952262  .00005661  00000+0  14807-2 0  9992",
        "tle_line2": "2 34146  86.2840 350.1275 0025427 224.2485 194.0777 14.49040748880965"
      },
      "geometry": {
        "type": "Point",
        "coordinates": [
          -16.829412827328127,
          -61.2900476103203
        ]
      }
    },
    {
      "type": "Feature",
      "properties": {
        "norad_id": 34159,
        "name": "IRIDIUM 33 DEB",
        "group": "iridium-33-debris",
        "lat": 29.096745571678294,
        "lon": 50.455002490586004,
        "alt_km": 765.2686373045008,
        "timestamp": "2025-12-12T07:43:20.900226+00:00",
        "meta_object_name": "IRIDIUM 33 DEB",
        "meta_object_id": "1997-051EN",
        "meta_epoch": "2025-12-11T14:53:33.595008",
        "meta_mean_motion": 14.38488957,
        "meta_eccentricity": 0.0025992,
        "meta_inclination": 86.3509,
        "meta_ra_of_asc_node": 48.7186,
        "meta_arg_of_pericenter": 291.8319,
        "meta_mean_anomaly": 68.0115,
        "meta_ephemeris_type": 0,
        "meta_classification_type": "U",
        "meta_norad_cat_id": 34159,
        "meta_element_set_no": 999,
        "meta_rev_at_epoch": 87943,
        "meta_bstar": 0.00059374897,
        "meta_mean_motion_dot": 1.839e-05,
        "meta_mean_motion_ddot": 0,
        "tle_line1": "1 34159U 97051EN  25345.62052772  .00001839  00000+0  59375-3 0  9996",
        "tle_line2": "2 34159  86.3509  48.7186 0025992 291.8319  68.0115 14.38488957879438"
      },
      "geometry": {
        "type": "Point",
        "coordinates": [
          50.455002490586004,
          29.096745571678294
        ]
      }
    }
  ]
}